COMMENT,ORIGINATOR,NORAD_CAT_ID,OBJECT_NAME,OBJECT_TYPE,CLASSIFICATION_TYPE,INTLDES,EPOCH,EPOCH_MICROSECONDS,MEAN_MOTION,ECCENTRICITY,INCLINATION,RA_OF_ASC_NODE,ARG_OF_PERICENTER,MEAN_ANOMALY,EPHEMERIS_TYPE,ELEMENT_SET_NO,REV_AT_EPOCH,BSTAR,MEAN_MOTION_DOT,MEAN_MOTION_DDOT,FILE,TLE_LINE0,TLE_LINE1,TLE_LINE2,OBJECT_ID,OBJECT_NUMBER,SEMIMAJOR_AXIS,PERIOD,APOGEE,PERIGEE,DECAYED,date
GENERATED VIA SPACETRACK.ORG API,18 SPCS,48894,SPACEBEE-107,PAYLOAD,U,21059R,2023/4/24 8:11,262400,15.29525842,0.0007061,97.5903,250.6303,108.4021,251.7987,0,999,10118,0.0045884,0.00133532,0,3893166,0 SPACEBEE-107,1 48894U 21059R   23114.34140350  .00133532  00000-0  45884-2 0  9999,2 48894  97.5903 250.6303 0007061 108.4021 251.7987 15.29525842101180,2021-059R,48894,6855.366,94.147,482.071,472.39,0,
GENERATED VIA SPACETRACK.ORG API,18 SPCS,48894,SPACEBEE-107,PAYLOAD,U,21059R,2023/4/24 14:28,614496,15.29541084,0.0007014,97.5903,250.8974,107.9127,252.2878,0,999,10122,0.0038359,0.00111343,0,3893330,0 SPACEBEE-107,1 48894U 21059R   23114.60309739  .00111343  00000-0  38359-2 0  9991,2 48894  97.5903 250.8974 0007014 107.9127 252.2878 15.29541084101221,2021-059R,48894,6855.32,94.146,481.994,472.377,0,
GENERATED VIA SPACETRACK.ORG API,18 SPCS,48894,SPACEBEE-107,PAYLOAD,U,21059R,2023/4/25 7:44,914336,15.29564723,0.0006983,97.5904,251.6318,105.3325,254.8687,0,999,10133,0.0012699,0.00036471,0,3894092,0 SPACEBEE-107,1 48894U 21059R   23115.32273049  .00036471  00000-0  12699-2 0  9992,2 48894  97.5904 251.6318 0006983 105.3325 254.8687 15.29564723101332,2021-059R,48894,6855.25,94.144,481.902,472.328,0,
GENERATED VIA SPACETRACK.ORG API,18 SPCS,48894,SPACEBEE-107,PAYLOAD,U,21059R,2023/4/25 7:44,914336,15.29564723,0.0006983,97.5904,251.6318,105.3325,254.8687,0,999,10133,0.0012699,0.00036471,0,3894123,0 SPACEBEE-107,1 48894U 21059R   23115.32273049  .00036471  00000-0  12699-2 0  9992,2 48894  97.5904 251.6318 0006983 105.3325 254.8687 15.29564723101332,2021-059R,48894,6855.25,94.144,481.902,472.328,0,
GENERATED VIA SPACETRACK.ORG API,18 SPCS,48894,SPACEBEE-107,PAYLOAD,U,21059R,2023/4/26 2:35,502880,15.29610023,0.0007052,97.5907,252.4332,102.3929,257.8101,0,999,10145,0.0011323,0.0003254,0,3894198,0 SPACEBEE-107,1 48894U 21059R   23116.10776045  .00032540  00000-0  11323-2 0  9999,2 48894  97.5907 252.4332 0007052 102.3929 257.8101 15.29610023101457,2021-059R,48894,6855.114,94.142,481.813,472.145,0,
GENERATED VIA SPACETRACK.ORG API,18 SPCS,48894,SPACEBEE-107,PAYLOAD,U,21059R,2023/4/26 8:51,926528,15.29624004,0.0007024,97.5905,252.7003,101.738,258.4648,0,999,10149,0.0010446,0.00030016,0,3894260,0 SPACEBEE-107,1 48894U 21059R   23116.36943202  .00030016  00000-0  10446-2 0  9999,2 48894  97.5905 252.7003 0007024 101.7380 258.4648 15.29624004101497,2021-059R,48894,6855.072,94.141,481.752,472.122,0,
GENERATED VIA SPACETRACK.ORG API,18 SPCS,48894,SPACEBEE-107,PAYLOAD,U,21059R,2023/4/26 15:08,84064,15.29639644,0.000705,97.5903,252.9677,101.2014,259.0018,0,999,10153,0.0010385,0.00029854,0,3894261,0 SPACEBEE-107,1 48894U 21059R   23116.63110051  .00029854  00000-0  10385-2 0  9997,2 48894  97.5903 252.9677 0007050 101.2014 259.0018 15.29639644101531,2021-059R,48894,6855.026,94.14,481.723,472.058,0,
GENERATED VIA SPACETRACK.ORG API,18 SPCS,48894,SPACEBEE-107,PAYLOAD,U,21059R,2023/4/27 8:24,246560,15.29687737,0.0006954,97.5901,253.7025,98.7566,261.4462,0,999,10164,0.0011478,0.00033067,0,3894658,0 SPACEBEE-107,1 48894U 21059R   23117.35067415  .00033067  00000-0  11478-2 0  9997,2 48894  97.5901 253.7025 0006954  98.7566 261.4462 15.29687737101647,2021-059R,48894,6854.882,94.137,481.514,471.98,0,
GENERATED VIA SPACETRACK.ORG API,18 SPCS,48894,SPACEBEE-107,PAYLOAD,U,21059R,2023/4/27 8:24,246560,15.29687737,0.0006954,97.5901,253.7025,98.7566,261.4462,0,999,10164,0.0011478,0.00033067,0,3894751,0 SPACEBEE-107,1 48894U 21059R   23117.35067415  .00033067  00000-0  11478-2 0  9997,2 48894  97.5901 253.7025 0006954  98.7566 261.4462 15.29687737101647,2021-059R,48894,6854.882,94.137,481.514,471.98,0,
GENERATED VIA SPACETRACK.ORG API,18 SPCS,48894,SPACEBEE-107,PAYLOAD,U,21059R,2023/4/28 7:57,806464,15.29756152,0.0006875,97.5899,254.7046,95.2279,264.9746,0,999,10179,0.0011207,0.00032349,0,3895770,0 SPACEBEE-107,1 48894U 21059R   23118.33187276  .00032349  00000-0  11207-2 0  9996,2 48894  97.5899 254.7046 0006875  95.2279 264.9746 15.29756152101799,2021-059R,48894,6854.678,94.133,481.255,471.83,0,
GENERATED VIA SPACETRACK.ORG API,18 SPCS,48894,SPACEBEE-107,PAYLOAD,U,21059R,2023/4/29 2:48,494944,15.29811893,0.00069,97.5898,255.5063,92.5924,267.6106,0,999,10191,0.0011675,0.00033767,0,3896136,0 SPACEBEE-107,1 48894U 21059R   23119.11679971  .00033767  00000-0  11675-2 0  9995,2 48894  97.5898 255.5063 0006900  92.5924 267.6106 15.29811893101910,2021-059R,48894,6854.511,94.129,481.106,471.647,0,
GENERATED VIA SPACETRACK.ORG API,18 SPCS,48894,SPACEBEE-107,PAYLOAD,U,21059R,2023/4/29 7:30,522432,15.29826335,0.0006864,97.5898,255.7067,92.0109,268.1917,0,999,10194,0.0011575,0.00033491,0,3896517,0 SPACEBEE-107,1 48894U 21059R   23119.31302688  .00033491  00000-0  11575-2 0  9998,2 48894  97.5898 255.7067 0006864  92.0109 268.1917 15.29826335101941,2021-059R,48894,6854.468,94.128,481.038,471.628,0,
GENERATED VIA SPACETRACK.ORG API,18 SPCS,48894,SPACEBEE-107,PAYLOAD,U,21059R,2023/4/30 8:37,399424,15.29900991,0.0006851,97.5901,256.7753,88.6591,271.5433,0,999,10210,0.0011419,0.00033112,0,3897241,0 SPACEBEE-107,1 48894U 21059R   23120.35954166  .00033112  00000-0  11419-2 0  9995,2 48894  97.5901 256.7753 0006851  88.6591 271.5433 15.29900991102102,2021-059R,48894,6854.245,94.124,480.806,471.414,0,
GENERATED VIA SPACETRACK.ORG API,18 SPCS,48894,SPACEBEE-107,PAYLOAD,U,21059R,2023/4/30 8:37,399424,15.29900991,0.0006851,97.5901,256.7753,88.6591,271.5433,0,999,10210,0.0011419,0.00033112,0,3897442,0 SPACEBEE-107,1 48894U 21059R   23120.35954166  .00033112  00000-0  11419-2 0  9995,2 48894  97.5901 256.7753 0006851  88.6591 271.5433 15.29900991102102,2021-059R,48894,6854.245,94.124,480.806,471.414,0,
